CUTE-1 (CO-55)          
1 27844U 03031E   26061.53865418  .00000422  00000+0  20177-3 0  9994
2 27844  98.6778  71.4263 0010451 131.1798 229.0284 14.24259043176494
CUBESAT XI-IV (CO-57)   
1 27848U 03031J   26061.47397015  .00000370  00000+0  18145-3 0  9998
2 27848  98.6809  71.1608 0010073 147.8970 212.2824 14.23555341176199
CUBESAT XI-V            
1 28895U 05043F   26061.64784810  .00002536  00000+0  40907-3 0  9995
2 28895  98.2814 215.1395 0014355 179.3571 180.7656 14.72280863 86078
CUTE-1.7+APD II (CO-65) 
1 32785U 08021C   26061.88045833  .00009086  00000+0  58977-3 0  9991
2 32785  97.8192  41.2304 0010318  39.4800 320.7177 15.08251734969168
CANX-2                  
1 32790U 08021H   26061.79137944  .00006314  00000+0  45220-3 0  9990
2 32790  97.8552  39.6273 0012266  51.2149 309.0170 15.04705248968805
SEEDS II (CO-66)        
1 32791U 08021J   26061.52544139  .00022953  00000+0  82362-3 0  9995
2 32791  97.7503  54.6595 0002730  20.6846 339.4503 15.28701509970974
SWISSCUBE               
1 35932U 09051B   26061.70310119  .00001519  00000+0  31106-3 0  9993
2 35932  98.4106 327.7220 0006594 173.5794 186.5492 14.62235995873598
BEESAT-1                
1 35933U 09051C   26061.72684061  .00001272  00000+0  26627-3 0  9994
2 35933  98.4036 327.6002 0004825 184.8887 175.2267 14.61513291873638
ITUPSAT1                
1 35935U 09051E   26061.69356917  .00001151  00000+0  24857-3 0  9997
2 35935  98.4125 326.8680 0006783 200.9387 159.1536 14.60249665873193
TISAT 1                 
1 36799U 10035E   26061.81287160  .00025810  00000+0  96804-3 0  9996
2 36799  98.0646 359.3470 0000180 143.8613 216.2636 15.27224236851447
AEROCUBE 4.5A           
1 38767U 12048K   26061.35728352  .00091421  00000+0  10493-2 0  9991
2 38767  64.6373  45.5569 0042007 214.4830 145.3589 15.60456493355844
STRAND-1                
1 39090U 13009E   26061.46258252  .00000465  00000+0  17107-3 0  9996
2 39090  98.3880 244.3341 0008604 182.8724 177.2415 14.37087200681734
BRITE-AUSTRIA           
1 39091U 13009F   26061.49984190  .00000297  00000+0  11565-3 0  9992
2 39091  98.3949 243.5873 0009932 192.5436 167.5505 14.36491012681736
NEE-01 PEGASO           
1 39151U 13018B   26061.79736984  .00005160  00000+0  50096-3 0  9994
2 39151  98.1033 202.5812 0013546 150.7424 209.4556 14.93024457694826
POPACS 2                
1 39269U 13055E   26061.58107071  .00027795  00000+0  48690-3 0  9996
2 39269  80.9893 265.9279 0432087 175.5361 184.9919 14.87367632647342
POPACS 3                
1 39270U 13055F   26061.24760007  .00018351  00000+0  44171-3 0  9993
2 39270  81.0063 344.9571 0561688  35.2955 328.4100 14.53690183623006
ZACUBE-1 (TSHEPISOSAT)  
1 39417U 13066B   26061.86043747  .00006102  00000+0  48380-3 0  9998
2 39417  97.8182  23.6506 0041555 243.0931 116.6044 15.00236927664783
